NORAD_CAT_ID,OBJECT_NAME,OBJECT_TYPE,EPOCH,MEAN_MOTION,ECCENTRICITY,INCLINATION,RA_OF_ASC_NODE,ARG_OF_PERICENTER,MEAN_ANOMALY,BSTAR,MEAN_MOTION_DOT,MEAN_MOTION_DDOT,TLE_LINE0,TLE_LINE1,TLE_LINE2,SEMIMAJOR_AXIS,PERIOD,APOGEE,PERIGEE,DECAYED
53007.0,STARLINK-4215,PAYLOAD,2023-02-08 13:33:33,15.08841784,0.0001296,53.2164,105.009,97.2944,262.8195,-6.3682e-05,-1.301e-05,0.0,0 STARLINK-4215,1 53007U 22076X   23039.56496618 -.00001301  00000-0 -63682-4 0  9990,2 53007  53.2164 105.0090 0001296  97.2944 262.8195 15.08841784 33461,6917.875,95.437,540.636,538.843,0.0
53007.0,STARLINK-4215,PAYLOAD,2023-02-09 03:52:01,15.08835743,0.0001436,53.216,102.3316,94.5817,265.534,2.3488e-05,8.6e-07,0.0,0 STARLINK-4215,1 53007U 22076X   23040.16113243  .00000086  00000-0  23488-4 0  9995,2 53007  53.2160 102.3316 0001436  94.5817 265.5340 15.08835743 33553,6917.893,95.438,540.752,538.765,0.0
53007.0,STARLINK-4215,PAYLOAD,2023-02-09 10:13:33,15.08847023,0.0001748,53.2162,101.1464,85.6261,274.4931,0.00015166,2.127e-05,0.0,0 STARLINK-4215,1 53007U 22076X   23040.42608727  .00002127  00000-0  15166-3 0  9991,2 53007  53.2162 101.1464 0001748  85.6261 274.4931 15.08847023 33128,6917.859,95.437,540.933,538.515,0.0
53007.0,STARLINK-4215,PAYLOAD,2023-02-09 21:21:16,15.0883473,0.0001786,53.2159,99.0611,79.1503,280.969,9.3777e-05,1.204e-05,0.0,0 STARLINK-4215,1 53007U 22076X   23040.88977357  .00001204  00000-0  93777-4 0  9999,2 53007  53.2159  99.0611 0001786  79.1503 280.9690 15.08834730 33194,6917.896,95.438,540.997,538.526,0.0
53007.0,STARLINK-4215,PAYLOAD,2023-02-10 03:42:49,15.08834005,0.000177,53.2155,97.8712,87.059,273.0605,0.00010736,1.421e-05,0.0,0 STARLINK-4215,1 53007U 22076X   23041.15473663  .00001421  00000-0  10736-3 0  9995,2 53007  53.2155  97.8712 0001770  87.0590 273.0605 15.08834005 33234,6917.899,95.438,540.988,538.539,0.0
53007.0,STARLINK-4215,PAYLOAD,2023-02-10 14:50:30,15.08859701,0.0001816,53.2157,95.7909,88.1346,271.9854,0.00070784,0.00011001,0.0,0 STARLINK-4215,1 53007U 22076X   23041.61840938  .00011001  00000-0  70784-3 0  9993,2 53007  53.2157  95.7909 0001816  88.1346 271.9854 15.08859701 33775,6917.82,95.436,540.941,538.429,0.0
53007.0,STARLINK-4215,PAYLOAD,2023-02-11 13:05:54,15.08870785,0.0001481,53.2156,91.6271,74.5988,285.5167,0.001566,0.00024744,0.0,0 STARLINK-4215,1 53007U 22076X   23042.54577215  .00024744  00000-0  15660-2 0  9990,2 53007  53.2156  91.6271 0001481  74.5988 285.5167 15.08870785 33919,6917.786,95.436,540.676,538.627,0.0
53007.0,STARLINK-4215,PAYLOAD,2023-02-11 14:41:17,15.08876057,0.0001458,53.2159,91.3308,78.2173,281.8983,0.0026529,0.00042228,0.0,0 STARLINK-4215,1 53007U 22076X   23042.61201233  .00042228  00000-0  26529-2 0  9995,2 53007  53.2159  91.3308 0001458  78.2173 281.8983 15.08876057 33453,6917.77,95.435,540.644,538.627,0.0
53007.0,STARLINK-4215,PAYLOAD,2023-02-12 03:24:23,15.08851771,0.0001276,53.2152,88.95,82.9,277.2137,0.0019921,0.00031569,0.0,0 STARLINK-4215,1 53007U 22076X   23043.14193620  .00031569  00000-0  19921-2 0  9998,2 53007  53.2152  88.9500 0001276  82.9000 277.2137 15.08851771 34009,6917.844,95.437,540.592,538.827,0.0
53007.0,STARLINK-4215,PAYLOAD,2023-02-12 09:45:55,15.08856946,3.54e-05,53.2153,87.7605,37.9158,322.1859,0.0020916,0.00033172,0.0,0 STARLINK-4215,1 53007U 22076X   23043.40689460  .00033172  00000-0  20916-2 0  9997,2 53007  53.2153  87.7605 0000354  37.9158 322.1859 15.08856946 33574,6917.829,95.436,539.938,539.449,0.0
53007.0,STARLINK-4215,PAYLOAD,2023-02-12 19:18:15,15.08823038,0.0003585,53.2147,85.9704,90.8862,269.2541,0.00046927,7.185e-05,0.0,0 STARLINK-4215,1 53007U 22076X   23043.80434275  .00007185  00000-0  46927-3 0  9999,2 53007  53.2147  85.9704 0003585  90.8862 269.2541 15.08823038 34101,6917.932,95.439,542.277,537.317,0.0
53007.0,STARLINK-4215,PAYLOAD,2023-02-13 03:15:10,15.08843249,0.0001087,53.2163,84.4907,110.0972,250.0137,0.0013331,0.00020994,0.0,0 STARLINK-4215,1 53007U 22076X   23044.13553785  .00020994  00000-0  13331-2 0  9999,2 53007  53.2163  84.4907 0001087 110.0972 250.0137 15.08843249 34150,6917.87,95.437,540.487,538.983,0.0
53007.0,STARLINK-4215,PAYLOAD,2023-02-13 09:36:42,15.08856834,0.0001304,53.2158,83.3002,106.2719,253.8417,0.0022144,0.00035146,0.0,0 STARLINK-4215,1 53007U 22076X   23044.40049628  .00035146  00000-0  22144-2 0  9992,2 53007  53.2158  83.3002 0001304 106.2719 253.8417 15.08856834 33724,6917.829,95.436,540.596,538.792,0.0
53007.0,STARLINK-4215,PAYLOAD,2023-02-13 19:09:02,15.08829951,0.0003597,53.216,81.5145,82.0289,278.1111,2.3627e-05,8.7e-07,0.0,0 STARLINK-4215,1 53007U 22076X   23044.79794166  .00000087  00000-0  23627-4 0  9993,2 53007  53.2160  81.5145 0003597  82.0289 278.1111 15.08829951 34254,6917.911,95.438,542.264,537.288,0.0
53007.0,STARLINK-4215,PAYLOAD,2023-02-14 09:27:30,15.08858463,0.0002105,53.2167,78.8391,90.9288,269.1945,0.0019719,0.00031251,0.0,0 STARLINK-4215,1 53007U 22076X   23045.39409889  .00031251  00000-0  19719-2 0  9997,2 53007  53.2167  78.8391 0002105  90.9288 269.1945 15.08858463 34349,6917.824,95.436,541.145,538.233,0.0
53007.0,STARLINK-4215,PAYLOAD,2023-02-14 12:38:16,15.08851252,0.0001328,53.2178,78.2455,87.7859,272.3285,0.0015729,0.00024841,0.0,0 STARLINK-4215,1 53007U 22076X   23045.52657862  .00024841  00000-0  15729-2 0  9992,2 53007  53.2178  78.2455 0001328  87.7859 272.3285 15.08851252 33891,6917.846,95.437,540.63,538.792,0.0
53007.0,STARLINK-4215,PAYLOAD,2023-02-14 18:59:49,15.08845492,0.0001179,53.2161,77.0555,104.4066,255.7057,0.00086302,0.00013476,0.0,0 STARLINK-4215,1 53007U 22076X   23045.79154115  .00013476  00000-0  86302-3 0  9992,2 53007  53.2161  77.0555 0001179 104.4066 255.7057 15.08845492 34401,6917.864,95.437,540.544,538.913,0.0
53007.0,STARLINK-4215,PAYLOAD,2023-02-15 10:53:40,15.08862827,0.0001356,53.2162,74.0822,99.0782,261.0363,0.0018437,0.00029195,0.0,0 STARLINK-4215,1 53007U 22076X   23046.45393830  .00029195  00000-0  18437-2 0  9993,2 53007  53.2162  74.0822 0001356  99.0782 261.0363 15.08862827 34037,6917.811,95.436,540.614,538.738,0.0
53007.0,STARLINK-4215,PAYLOAD,2023-02-15 18:50:35,15.08849546,0.0001087,53.2161,72.5952,100.7677,259.3438,0.0009432,0.00014759,0.0,0 STARLINK-4215,1 53007U 22076X   23046.78513867  .00014759  00000-0  94320-3 0  9999,2 53007  53.2161  72.5952 0001087 100.7677 259.3438 15.08849546 34550,6917.851,95.437,540.468,538.964,0.0
53007.0,STARLINK-4215,PAYLOAD,2023-02-16 09:09:03,15.08869772,0.0001109,53.2161,69.9175,81.8809,278.2309,0.0022288,0.00035391,0.0,0 STARLINK-4215,1 53007U 22076X   23047.38129238  .00035391  00000-0  22288-2 0  9999,2 53007  53.2161  69.9175 0001109  81.8809 278.2309 15.08869772 34176,6917.789,95.436,540.422,538.887,0.0
53007.0,STARLINK-4215,PAYLOAD,2023-02-16 18:41:22,15.08846837,0.0001649,53.2175,68.1323,78.6742,281.4435,0.00092251,0.00014427,0.0,0 STARLINK-4215,1 53007U 22076X   23047.77873726  .00014427  00000-0  92251-3 0  9995,2 53007  53.2175  68.1323 0001649  78.6742 281.4435 15.08846837 34236,6917.859,95.437,540.865,538.584,0.0
53007.0,STARLINK-4215,PAYLOAD,2023-02-17 12:10:38,15.08829453,0.0001179,53.2159,64.8605,80.5522,279.5603,0.001206,0.00018952,0.0,0 STARLINK-4215,1 53007U 22076X   23048.50738476  .00018952  00000-0  12060-2 0  9995,2 53007  53.2159  64.8605 0001179  80.5522 279.5603 15.08829453 34814,6917.913,95.438,540.593,538.962,0.0
53007.0,STARLINK-4215,PAYLOAD,2023-02-17 18:32:10,15.08826265,8.87e-05,53.2166,63.6721,92.2079,267.9014,0.00053214,8.188e-05,0.0,0 STARLINK-4215,1 53007U 22076X   23048.77234862  .00008188  00000-0  53214-3 0  9991,2 53007  53.2166  63.6721 0000887  92.2079 267.9014 15.08826265 34859,6917.922,95.438,540.401,539.174,0.0
53007.0,STARLINK-4215,PAYLOAD,2023-02-18 12:01:25,15.0884357,0.0001166,53.2157,60.4024,76.5388,283.5734,0.0010839,0.00017006,0.0,0 STARLINK-4215,1 53007U 22076X   23049.50099277  .00017006  00000-0  10839-2 0  9996,2 53007  53.2157  60.4024 0001166  76.5388 283.5734 15.08843570 34490,6917.869,95.437,540.541,538.928,0.0
53007.0,STARLINK-4215,PAYLOAD,2023-02-19 11:52:11,15.08867654,0.000125,53.2162,55.9402,81.7318,278.3816,0.00086527,0.0001352,0.0,0 STARLINK-4215,1 53007U 22076X   23050.49458310  .00013520  00000-0  86527-3 0  9998,2 53007  53.2162  55.9402 0001250  81.7318 278.3816 15.08867654 35112,6917.796,95.436,540.526,538.796,0.0
53007.0,STARLINK-4215,PAYLOAD,2023-02-20 06:56:49,15.08857786,0.0001178,53.2164,52.3723,89.0242,271.0885,0.00051178,7.87e-05,0.0,0 STARLINK-4215,1 53007U 22076X   23051.28946011  .00007870  00000-0  51178-3 0  9991,2 53007  53.2164  52.3723 0001178  89.0242 271.0885 15.08857786 35231,6917.826,95.436,540.506,538.876,0.0
53007.0,STARLINK-4215,PAYLOAD,2023-02-20 11:42:58,15.08864975,0.000121,53.2165,51.4805,93.1395,266.9735,0.00091286,0.0001428,0.0,0 STARLINK-4215,1 53007U 22076X   23051.48817759  .00014280  00000-0  91286-3 0  9996,2 53007  53.2165  51.4805 0001210  93.1395 266.9735 15.08864975 34790,6917.804,95.436,540.506,538.832,0.0
53007.0,STARLINK-4215,PAYLOAD,2023-02-21 00:26:04,15.0883897,0.000173,53.2167,49.1007,86.7813,273.3377,0.00040737,6.201e-05,0.0,0 STARLINK-4215,1 53007U 22076X   23052.01810306  .00006201  00000-0  40737-3 0  9996,2 53007  53.2167  49.1007 0001730  86.7813 273.3377 15.08838970 35342,6917.884,95.438,540.945,538.552,0.0
53007.0,STARLINK-4215,PAYLOAD,2023-02-21 09:58:23,15.08841428,0.0001306,53.2175,47.3187,84.947,275.1671,0.00092043,0.00014392,0.0,0 STARLINK-4215,1 53007U 22076X   23052.41554505  .00014392  00000-0  92043-3 0  9993,2 53007  53.2175  47.3187 0001306  84.9470 275.1671 15.08841428 34931,6917.876,95.437,540.644,538.838,0.0
53007.0,STARLINK-4215,PAYLOAD,2023-02-21 16:19:55,15.08837941,0.0001165,53.217,46.1279,96.9396,263.1729,0.00036361,5.503e-05,0.0,0 STARLINK-4215,1 53007U 22076X   23052.68050558  .00005503  00000-0  36361-3 0  9996,2 53007  53.2170  46.1279 0001165  96.9396 263.1729 15.08837941 35441,6917.887,95.438,540.558,538.946,0.0
